[{"OBJECT_NAME":"STARLINK-11377 [DTC]","OBJECT_ID":"2024-213F","EPOCH":"2025-10-07T03:55:06.153024","MEAN_MOTION":15.69773301,"ECCENTRICITY":0.00011086,"INCLINATION":53.1559,"RA_OF_ASC_NODE":77.9846,"ARG_OF_PERICENTER":76.4358,"MEAN_ANOMALY":283.6783,"EPHEMERIS_TYPE":0,"CLASSIFICATION_TYPE":"U","NORAD_CAT_ID":62013,"ELEMENT_SET_NO":999,"REV_AT_EPOCH":5080,"BSTAR":0.0013953731,"MEAN_MOTION_DOT":0.0017247,"MEAN_MOTION_DDOT":0},{"OBJECT_NAME":"STARLINK-11385 [DTC]","OBJECT_ID":"2024-213G","EPOCH":"2025-10-07T19:47:15.407232","MEAN_MOTION":15.6983846,"ECCENTRICITY":0.00016016,"INCLINATION":53.1564,"RA_OF_ASC_NODE":75.0054,"ARG_OF_PERICENTER":59.3327,"MEAN_ANOMALY":300.7849,"EPHEMERIS_TYPE":0,"CLASSIFICATION_TYPE":"U","NORAD_CAT_ID":62014,"ELEMENT_SET_NO":999,"REV_AT_EPOCH":5090,"BSTAR":0.0029737039,"MEAN_MOTION_DOT":0.00378612,"MEAN_MOTION_DDOT":0},{"OBJECT_NAME":"STARLINK-11396 [DTC]","OBJECT_ID":"2024-213H","EPOCH":"2025-10-07T18:57:48.243744","MEAN_MOTION":15.69804796,"ECCENTRICITY":0.00011971,"INCLINATION":53.1564,"RA_OF_ASC_NODE":74.7731,"ARG_OF_PERICENTER":42.0552,"MEAN_ANOMALY":318.0558,"EPHEMERIS_TYPE":0,"CLASSIFICATION_TYPE":"U","NORAD_CAT_ID":62015,"ELEMENT_SET_NO":999,"REV_AT_EPOCH":5090,"BSTAR":0.0023875834,"MEAN_MOTION_DOT":0.0030057,"MEAN_MOTION_DDOT":0},{"OBJECT_NAME":"STARLINK-11393 [DTC]","OBJECT_ID":"2024-213J","EPOCH":"2025-10-07T18:50:44.321280","MEAN_MOTION":15.69859819,"ECCENTRICITY":9.948e-5,"INCLINATION":53.1557,"RA_OF_ASC_NODE":74.7439,"ARG_OF_PERICENTER":10.134,"MEAN_ANOMALY":349.9698,"EPHEMERIS_TYPE":0,"CLASSIFICATION_TYPE":"U","NORAD_CAT_ID":62016,"ELEMENT_SET_NO":999,"REV_AT_EPOCH":5090,"BSTAR":0.0036157167,"MEAN_MOTION_DOT":0.00465862,"MEAN_MOTION_DDOT":0},{"OBJECT_NAME":"STARLINK-11343 [DTC]","OBJECT_ID":"2024-213K","EPOCH":"2025-10-08T03:18:36.257760","MEAN_MOTION":15.69799106,"ECCENTRICITY":0.00011836,"INCLINATION":53.1576,"RA_OF_ASC_NODE":73.4041,"ARG_OF_PERICENTER":81.2418,"MEAN_ANOMALY":278.8734,"EPHEMERIS_TYPE":0,"CLASSIFICATION_TYPE":"U","NORAD_CAT_ID":62017,"ELEMENT_SET_NO":999,"REV_AT_EPOCH":5095,"BSTAR":0.0020529049,"MEAN_MOTION_DOT":0.00256921,"MEAN_MOTION_DDOT":0},{"OBJECT_NAME":"STARLINK-11411 [DTC]","OBJECT_ID":"2024-213L","EPOCH":"2025-10-08T03:04:28.171776","MEAN_MOTION":15.69820178,"ECCENTRICITY":9.19e-6,"INCLINATION":53.1589,"RA_OF_ASC_NODE":73.3386,"ARG_OF_PERICENTER":88.8608,"MEAN_ANOMALY":271.242,"EPHEMERIS_TYPE":0,"CLASSIFICATION_TYPE":"U","NORAD_CAT_ID":62018,"ELEMENT_SET_NO":999,"REV_AT_EPOCH":5095,"BSTAR":0.0022162654,"MEAN_MOTION_DOT":0.00278402,"MEAN_MOTION_DDOT":0},{"OBJECT_NAME":"STARLINK-11404 [DTC]","OBJECT_ID":"2024-213M","EPOCH":"2025-10-08T03:46:53.673024","MEAN_MOTION":15.69809258,"ECCENTRICITY":0.00021948,"INCLINATION":53.1545,"RA_OF_ASC_NODE":73.5289,"ARG_OF_PERICENTER":90.1767,"MEAN_ANOMALY":269.9502,"EPHEMERIS_TYPE":0,"CLASSIFICATION_TYPE":"U","NORAD_CAT_ID":62019,"ELEMENT_SET_NO":999,"REV_AT_EPOCH":5095,"BSTAR":0.0023325612,"MEAN_MOTION_DOT":0.00293427,"MEAN_MOTION_DDOT":0},{"OBJECT_NAME":"STARLINK-11378 [DTC]","OBJECT_ID":"2024-213N","EPOCH":"2025-10-07T18:43:40.099008","MEAN_MOTION":15.69841757,"ECCENTRICITY":0.00032765,"INCLINATION":53.1584,"RA_OF_ASC_NODE":74.7092,"ARG_OF_PERICENTER":317.4184,"MEAN_ANOMALY":42.6579,"EPHEMERIS_TYPE":0,"CLASSIFICATION_TYPE":"U","NORAD_CAT_ID":62020,"ELEMENT_SET_NO":999,"REV_AT_EPOCH":5090,"BSTAR":0.0024064236,"MEAN_MOTION_DOT":0.00303536,"MEAN_MOTION_DDOT":0},{"OBJECT_NAME":"STARLINK-32520","OBJECT_ID":"2024-213P","EPOCH":"2025-10-08T01:41:28.404960","MEAN_MOTION":15.30189353,"ECCENTRICITY":8.44e-5,"INCLINATION":53.1608,"RA_OF_ASC_NODE":157.3442,"ARG_OF_PERICENTER":52.3489,"MEAN_ANOMALY":307.7588,"EPHEMERIS_TYPE":0,"CLASSIFICATION_TYPE":"U","NORAD_CAT_ID":62021,"ELEMENT_SET_NO":999,"REV_AT_EPOCH":4978,"BSTAR":0.0011328513,"MEAN_MOTION_DOT":0.00033332,"MEAN_MOTION_DDOT":0},{"OBJECT_NAME":"STARLINK-32539","OBJECT_ID":"2024-213Q","EPOCH":"2025-10-08T00:24:49.490208","MEAN_MOTION":15.30226498,"ECCENTRICITY":7.894e-5,"INCLINATION":53.1611,"RA_OF_ASC_NODE":144.7598,"ARG_OF_PERICENTER":70.7973,"MEAN_ANOMALY":289.3113,"EPHEMERIS_TYPE":0,"CLASSIFICATION_TYPE":"U","NORAD_CAT_ID":62022,"ELEMENT_SET_NO":999,"REV_AT_EPOCH":4995,"BSTAR":0.0017660356,"MEAN_MOTION_DOT":0.00052358,"MEAN_MOTION_DDOT":0},{"OBJECT_NAME":"STARLINK-32334","OBJECT_ID":"2024-213R","EPOCH":"2025-10-07T22:46:53.078016","MEAN_MOTION":15.3022333,"ECCENTRICITY":0.0001155,"INCLINATION":53.1532,"RA_OF_ASC_NODE":157.2957,"ARG_OF_PERICENTER":86.0941,"MEAN_ANOMALY":274.0191,"EPHEMERIS_TYPE":0,"CLASSIFICATION_TYPE":"U","NORAD_CAT_ID":62023,"ELEMENT_SET_NO":999,"REV_AT_EPOCH":4977,"BSTAR":0.00085329,"MEAN_MOTION_DOT":0.00025016,"MEAN_MOTION_DDOT":0},{"OBJECT_NAME":"STARLINK-32504","OBJECT_ID":"2024-213S","EPOCH":"2025-10-07T23:11:12.268608","MEAN_MOTION":15.30222584,"ECCENTRICITY":0.00016319,"INCLINATION":53.1572,"RA_OF_ASC_NODE":157.4072,"ARG_OF_PERICENTER":89.3572,"MEAN_ANOMALY":270.7616,"EPHEMERIS_TYPE":0,"CLASSIFICATION_TYPE":"U","NORAD_CAT_ID":62024,"ELEMENT_SET_NO":999,"REV_AT_EPOCH":4977,"BSTAR":0.0012044661,"MEAN_MOTION_DOT":0.00035509,"MEAN_MOTION_DDOT":0},{"OBJECT_NAME":"STARLINK-32493","OBJECT_ID":"2024-213T","EPOCH":"2025-10-08T01:32:21.962112","MEAN_MOTION":15.30246771,"ECCENTRICITY":0.00020847,"INCLINATION":53.1569,"RA_OF_ASC_NODE":157.3051,"ARG_OF_PERICENTER":86.7373,"MEAN_ANOMALY":273.3866,"EPHEMERIS_TYPE":0,"CLASSIFICATION_TYPE":"U","NORAD_CAT_ID":62025,"ELEMENT_SET_NO":999,"REV_AT_EPOCH":4978,"BSTAR":0.0016050446,"MEAN_MOTION_DOT":0.00047552,"MEAN_MOTION_DDOT":0},{"OBJECT_NAME":"STARLINK-32561","OBJECT_ID":"2024-213U","EPOCH":"2025-10-08T00:54:22.257504","MEAN_MOTION":15.30224473,"ECCENTRICITY":7.196e-5,"INCLINATION":53.158,"RA_OF_ASC_NODE":157.141,"ARG_OF_PERICENTER":113.3703,"MEAN_ANOMALY":246.7374,"EPHEMERIS_TYPE":0,"CLASSIFICATION_TYPE":"U","NORAD_CAT_ID":62026,"ELEMENT_SET_NO":999,"REV_AT_EPOCH":4978,"BSTAR":0.0013775959,"MEAN_MOTION_DOT":0.00040696,"MEAN_MOTION_DDOT":0},{"OBJECT_NAME":"STARLINK-32512","OBJECT_ID":"2024-213V","EPOCH":"2025-10-07T22:57:31.292352","MEAN_MOTION":15.30211182,"ECCENTRICITY":9.35e-5,"INCLINATION":53.1499,"RA_OF_ASC_NODE":157.343,"ARG_OF_PERICENTER":84.4592,"MEAN_ANOMALY":275.6515,"EPHEMERIS_TYPE":0,"CLASSIFICATION_TYPE":"U","NORAD_CAT_ID":62027,"ELEMENT_SET_NO":999,"REV_AT_EPOCH":4977,"BSTAR":0.00038556,"MEAN_MOTION_DOT":0.00011081,"MEAN_MOTION_DDOT":0},{"OBJECT_NAME":"STARLINK-32637","OBJECT_ID":"2024-216A","EPOCH":"2025-10-08T00:50:15.474048","MEAN_MOTION":15.27656179,"ECCENTRICITY":0.00010793,"INCLINATION":43.0017,"RA_OF_ASC_NODE":38.045,"ARG_OF_PERICENTER":293.531,"MEAN_ANOMALY":66.5429,"EPHEMERIS_TYPE":0,"CLASSIFICATION_TYPE":"U","NORAD_CAT_ID":62032,"ELEMENT_SET_NO":999,"REV_AT_EPOCH":5053,"BSTAR":0.0018743707,"MEAN_MOTION_DOT":0.000518,"MEAN_MOTION_DDOT":0}]
