STARLINK-11377 [DTC]    
1 62013U 24213F   25280.16326566  .00172470  00000+0  13954-2 0  9990
2 62013  53.1559  77.9846 0001108  76.4358 283.6783 15.69773301 50808
STARLINK-11385 [DTC]    
1 62014U 24213G   25280.82448388  .00378612  00000+0  29737-2 0  9993
2 62014  53.1564  75.0054 0001601  59.3327 300.7849 15.69838460 50902
STARLINK-11396 [DTC]    
1 62015U 24213H   25280.79014171  .00300570  00000+0  23876-2 0  9995
2 62015  53.1564  74.7731 0001197  42.0552 318.0558 15.69804796 50904
STARLINK-11393 [DTC]    
1 62016U 24213J   25280.78523520  .00465862  00000+0  36157-2 0  9990
2 62016  53.1557  74.7439 0000994  10.1340 349.9698 15.69859819 50901
STARLINK-11343 [DTC]    
1 62017U 24213K   25281.13791965  .00256921  00000+0  20529-2 0  9991
2 62017  53.1576  73.4041 0001183  81.2418 278.8734 15.69799106 50952
STARLINK-11411 [DTC]    
1 62018U 24213L   25281.12810384  .00278402  00000+0  22163-2 0  9992
2 62018  53.1589  73.3386 0000091  88.8608 271.2420 15.69820178 50952
STARLINK-11404 [DTC]    
1 62019U 24213M   25281.15756566  .00293427  00000+0  23326-2 0  9993
2 62019  53.1545  73.5289 0002194  90.1767 269.9502 15.69809258 50958
STARLINK-11378 [DTC]    
1 62020U 24213N   25280.78032522  .00303536  00000+0  24064-2 0  9995
2 62020  53.1584  74.7092 0003276 317.4184  42.6579 15.69841757 50903
STARLINK-32520          
1 62021U 24213P   25281.07046765  .00033332  00000+0  11329-2 0  9997
2 62021  53.1608 157.3442 0000844  52.3489 307.7588 15.30189353 49783
STARLINK-32539          
1 62022U 24213Q   25281.01723947  .00052358  00000+0  17660-2 0  9999
2 62022  53.1611 144.7598 0000789  70.7973 289.3113 15.30226498 49950
STARLINK-32334          
1 62023U 24213R   25280.94922544  .00025016  00000+0  85329-3 0  9994
2 62023  53.1532 157.2957 0001155  86.0941 274.0191 15.30223330 49773
STARLINK-32504          
1 62024U 24213S   25280.96611422  .00035509  00000+0  12045-2 0  9999
2 62024  53.1572 157.4072 0001631  89.3572 270.7616 15.30222584 49778
STARLINK-32493          
1 62025U 24213T   25281.06414308  .00047552  00000+0  16050-2 0  9997
2 62025  53.1569 157.3051 0002084  86.7373 273.3866 15.30246771 49785
STARLINK-32561          
1 62026U 24213U   25281.03775761  .00040696  00000+0  13776-2 0  9992
2 62026  53.1580 157.1410 0000719 113.3703 246.7374 15.30224473 49786
STARLINK-32512          
1 62027U 24213V   25280.95661218  .00011081  00000+0  38556-3 0  9994
2 62027  53.1499 157.3430 0000935  84.4592 275.6515 15.30211182 49774
STARLINK-32637          
1 62032U 24216A   25281.03490132  .00051800  00000+0  18744-2 0  9997
2 62032  43.0017  38.0450 0001079 293.5310  66.5429 15.27656179 50534
